[{"OBJECT_NAME":"HULIANWANG DIGUI-49","OBJECT_ID":"2025-168A","EPOCH":"2026-03-03T21:50:17.771424","MEAN_MOTION":13.29338462,"ECCENTRICITY":0.00074003,"INCLINATION":50.005,"RA_OF_ASC_NODE":343.5543,"ARG_OF_PERICENTER":148.7474,"MEAN_ANOMALY":211.3839,"EPHEMERIS_TYPE":0,"CLASSIFICATION_TYPE":"U","NORAD_CAT_ID":65106,"ELEMENT_SET_NO":999,"REV_AT_EPOCH":2868,"BSTAR":0.00016450432,"MEAN_MOTION_DOT":-4.8e-7,"MEAN_MOTION_DDOT":0},{"OBJECT_NAME":"HULIANWANG DIGUI-50","OBJECT_ID":"2025-168B","EPOCH":"2026-03-03T21:38:11.895648","MEAN_MOTION":13.29339097,"ECCENTRICITY":0.00083556,"INCLINATION":50.002,"RA_OF_ASC_NODE":343.4539,"ARG_OF_PERICENTER":134.7118,"MEAN_ANOMALY":225.4436,"EPHEMERIS_TYPE":0,"CLASSIFICATION_TYPE":"U","NORAD_CAT_ID":65107,"ELEMENT_SET_NO":999,"REV_AT_EPOCH":2868,"BSTAR":0.00016215771,"MEAN_MOTION_DOT":-4.9e-7,"MEAN_MOTION_DDOT":0},{"OBJECT_NAME":"HULIANWANG DIGUI-51","OBJECT_ID":"2025-168C","EPOCH":"2026-03-03T23:14:24.587232","MEAN_MOTION":13.29339453,"ECCENTRICITY":0.00097082,"INCLINATION":50.0057,"RA_OF_ASC_NODE":343.21,"ARG_OF_PERICENTER":134.8723,"MEAN_ANOMALY":225.2939,"EPHEMERIS_TYPE":0,"CLASSIFICATION_TYPE":"U","NORAD_CAT_ID":65108,"ELEMENT_SET_NO":999,"REV_AT_EPOCH":2869,"BSTAR":0.00018251805,"MEAN_MOTION_DOT":-3.9e-7,"MEAN_MOTION_DDOT":0},{"OBJECT_NAME":"HULIANWANG DIGUI-52","OBJECT_ID":"2025-168D","EPOCH":"2026-03-03T23:02:32.601120","MEAN_MOTION":13.29338041,"ECCENTRICITY":0.00096055,"INCLINATION":50.0051,"RA_OF_ASC_NODE":343.1496,"ARG_OF_PERICENTER":147.7333,"MEAN_ANOMALY":212.4128,"EPHEMERIS_TYPE":0,"CLASSIFICATION_TYPE":"U","NORAD_CAT_ID":65109,"ELEMENT_SET_NO":999,"REV_AT_EPOCH":2869,"BSTAR":0.00014749453,"MEAN_MOTION_DOT":-5.6e-7,"MEAN_MOTION_DDOT":0},{"OBJECT_NAME":"HULIANWANG DIGUI-53","OBJECT_ID":"2025-168E","EPOCH":"2026-03-03T22:50:30.656544","MEAN_MOTION":13.29338003,"ECCENTRICITY":0.00083985,"INCLINATION":50.0058,"RA_OF_ASC_NODE":343.1279,"ARG_OF_PERICENTER":137.4575,"MEAN_ANOMALY":222.6949,"EPHEMERIS_TYPE":0,"CLASSIFICATION_TYPE":"U","NORAD_CAT_ID":65110,"ELEMENT_SET_NO":999,"REV_AT_EPOCH":2869,"BSTAR":0.00016196157,"MEAN_MOTION_DOT":-4.9e-7,"MEAN_MOTION_DDOT":0},{"OBJECT_NAME":"HULIANWANG DIGUI-54","OBJECT_ID":"2025-168F","EPOCH":"2026-03-03T22:14:41.060832","MEAN_MOTION":13.2933517,"ECCENTRICITY":0.0009991,"INCLINATION":50.0008,"RA_OF_ASC_NODE":342.9083,"ARG_OF_PERICENTER":142.6617,"MEAN_ANOMALY":217.4951,"EPHEMERIS_TYPE":0,"CLASSIFICATION_TYPE":"U","NORAD_CAT_ID":65111,"ELEMENT_SET_NO":999,"REV_AT_EPOCH":2869,"BSTAR":0.00016301258,"MEAN_MOTION_DOT":-4.8e-7,"MEAN_MOTION_DDOT":0},{"OBJECT_NAME":"HULIANWANG DIGUI-55","OBJECT_ID":"2025-168G","EPOCH":"2026-03-03T22:38:22.628544","MEAN_MOTION":13.29338728,"ECCENTRICITY":0.00112672,"INCLINATION":50.0014,"RA_OF_ASC_NODE":343.002,"ARG_OF_PERICENTER":138.52,"MEAN_ANOMALY":221.6529,"EPHEMERIS_TYPE":0,"CLASSIFICATION_TYPE":"U","NORAD_CAT_ID":65112,"ELEMENT_SET_NO":999,"REV_AT_EPOCH":2869,"BSTAR":0.0001533121,"MEAN_MOTION_DOT":-5.3e-7,"MEAN_MOTION_DDOT":0},{"OBJECT_NAME":"HULIANWANG DIGUI-56","OBJECT_ID":"2025-168H","EPOCH":"2026-03-03T22:26:22.530336","MEAN_MOTION":13.29338086,"ECCENTRICITY":0.00109856,"INCLINATION":50.0006,"RA_OF_ASC_NODE":342.9431,"ARG_OF_PERICENTER":160.5212,"MEAN_ANOMALY":199.6082,"EPHEMERIS_TYPE":0,"CLASSIFICATION_TYPE":"U","NORAD_CAT_ID":65113,"ELEMENT_SET_NO":999,"REV_AT_EPOCH":2869,"BSTAR":0.00015068526,"MEAN_MOTION_DOT":-5.4e-7,"MEAN_MOTION_DDOT":0},{"OBJECT_NAME":"HULIANWANG DIGUI-57","OBJECT_ID":"2025-168J","EPOCH":"2026-03-03T22:02:41.392896","MEAN_MOTION":13.29334959,"ECCENTRICITY":0.00087405,"INCLINATION":50.0034,"RA_OF_ASC_NODE":342.9122,"ARG_OF_PERICENTER":150.9462,"MEAN_ANOMALY":209.1898,"EPHEMERIS_TYPE":0,"CLASSIFICATION_TYPE":"U","NORAD_CAT_ID":65114,"ELEMENT_SET_NO":999,"REV_AT_EPOCH":2870,"BSTAR":0.000174117,"MEAN_MOTION_DOT":-4.3e-7,"MEAN_MOTION_DDOT":0},{"OBJECT_NAME":"HULIANWANG DIGUI-58","OBJECT_ID":"2025-174A","EPOCH":"2026-03-03T22:51:16.615296","MEAN_MOTION":13.24420914,"ECCENTRICITY":0.00012487,"INCLINATION":86.4929,"RA_OF_ASC_NODE":287.571,"ARG_OF_PERICENTER":86.1791,"MEAN_ANOMALY":273.9486,"EPHEMERIS_TYPE":0,"CLASSIFICATION_TYPE":"U","NORAD_CAT_ID":65164,"ELEMENT_SET_NO":999,"REV_AT_EPOCH":2686,"BSTAR":0.00016766449,"MEAN_MOTION_DOT":8.7e-7,"MEAN_MOTION_DDOT":0},{"OBJECT_NAME":"HULIANWANG DIGUI-59","OBJECT_ID":"2025-174B","EPOCH":"2026-03-03T23:02:09.023424","MEAN_MOTION":13.24421101,"ECCENTRICITY":0.00012353,"INCLINATION":86.489,"RA_OF_ASC_NODE":287.4984,"ARG_OF_PERICENTER":85.4557,"MEAN_ANOMALY":274.6718,"EPHEMERIS_TYPE":0,"CLASSIFICATION_TYPE":"U","NORAD_CAT_ID":65165,"ELEMENT_SET_NO":999,"REV_AT_EPOCH":2686,"BSTAR":0.00016572445,"MEAN_MOTION_DOT":8.6e-7,"MEAN_MOTION_DDOT":0},{"OBJECT_NAME":"HULIANWANG DIGUI-60","OBJECT_ID":"2025-174C","EPOCH":"2026-03-03T23:12:59.432256","MEAN_MOTION":13.24421319,"ECCENTRICITY":0.00012059,"INCLINATION":86.4922,"RA_OF_ASC_NODE":287.5649,"ARG_OF_PERICENTER":87.5034,"MEAN_ANOMALY":272.6238,"EPHEMERIS_TYPE":0,"CLASSIFICATION_TYPE":"U","NORAD_CAT_ID":65166,"ELEMENT_SET_NO":999,"REV_AT_EPOCH":2686,"BSTAR":0.00013290617,"MEAN_MOTION_DOT":7.2e-7,"MEAN_MOTION_DDOT":0},{"OBJECT_NAME":"HULIANWANG DIGUI-61","OBJECT_ID":"2025-174D","EPOCH":"2026-03-03T23:23:56.956992","MEAN_MOTION":13.2441983,"ECCENTRICITY":0.00011615,"INCLINATION":86.4931,"RA_OF_ASC_NODE":287.5849,"ARG_OF_PERICENTER":86.4091,"MEAN_ANOMALY":273.7175,"EPHEMERIS_TYPE":0,"CLASSIFICATION_TYPE":"U","NORAD_CAT_ID":65167,"ELEMENT_SET_NO":999,"REV_AT_EPOCH":2686,"BSTAR":8.4376055e-5,"MEAN_MOTION_DOT":5.1e-7,"MEAN_MOTION_DDOT":0},{"OBJECT_NAME":"HULIANWANG DIGUI-62","OBJECT_ID":"2025-174E","EPOCH":"2026-03-03T23:34:45.789888","MEAN_MOTION":13.2442121,"ECCENTRICITY":0.00011621,"INCLINATION":86.4872,"RA_OF_ASC_NODE":287.4724,"ARG_OF_PERICENTER":88.7348,"MEAN_ANOMALY":271.3919,"EPHEMERIS_TYPE":0,"CLASSIFICATION_TYPE":"U","NORAD_CAT_ID":65168,"ELEMENT_SET_NO":999,"REV_AT_EPOCH":2686,"BSTAR":9.6642885e-5,"MEAN_MOTION_DOT":5.6e-7,"MEAN_MOTION_DDOT":0},{"OBJECT_NAME":"HULIANWANG DIGUI-63","OBJECT_ID":"2025-174F","EPOCH":"2026-03-03T23:45:37.265760","MEAN_MOTION":13.24421593,"ECCENTRICITY":0.0001185,"INCLINATION":86.4925,"RA_OF_ASC_NODE":287.5786,"ARG_OF_PERICENTER":86.3108,"MEAN_ANOMALY":273.8162,"EPHEMERIS_TYPE":0,"CLASSIFICATION_TYPE":"U","NORAD_CAT_ID":65169,"ELEMENT_SET_NO":999,"REV_AT_EPOCH":2686,"BSTAR":9.4922581e-5,"MEAN_MOTION_DOT":5.5e-7,"MEAN_MOTION_DDOT":0},{"OBJECT_NAME":"HULIANWANG DIGUI-64","OBJECT_ID":"2025-174G","EPOCH":"2026-03-03T22:07:42.861504","MEAN_MOTION":13.24421578,"ECCENTRICITY":0.00011693,"INCLINATION":86.4884,"RA_OF_ASC_NODE":287.5275,"ARG_OF_PERICENTER":88.8964,"MEAN_ANOMALY":271.2304,"EPHEMERIS_TYPE":0,"CLASSIFICATION_TYPE":"U","NORAD_CAT_ID":65170,"ELEMENT_SET_NO":999,"REV_AT_EPOCH":2685,"BSTAR":9.1580157e-5,"MEAN_MOTION_DOT":5.4e-7,"MEAN_MOTION_DDOT":0}]
