HULIANWANG DIGUI-49     
1 65106U 25168A   26062.90992791 -.00000048  00000+0  16450-3 0  9993
2 65106  50.0050 343.5543 0007400 148.7474 211.3839 13.29338462 28685
HULIANWANG DIGUI-50     
1 65107U 25168B   26062.90152657 -.00000049  00000+0  16216-3 0  9994
2 65107  50.0020 343.4539 0008355 134.7118 225.4436 13.29339097 28681
HULIANWANG DIGUI-51     
1 65108U 25168C   26062.96834013 -.00000039  00000+0  18252-3 0  9995
2 65108  50.0057 343.2100 0009708 134.8723 225.2939 13.29339453 28693
HULIANWANG DIGUI-52     
1 65109U 25168D   26062.96009955 -.00000056  00000+0  14749-3 0  9991
2 65109  50.0051 343.1496 0009605 147.7333 212.4128 13.29338041 28691
HULIANWANG DIGUI-53     
1 65110U 25168E   26062.95174371 -.00000049  00000+0  16196-3 0  9997
2 65110  50.0058 343.1279 0008398 137.4575 222.6949 13.29338003 28693
HULIANWANG DIGUI-54     
1 65111U 25168F   26062.92686413 -.00000048  00000+0  16301-3 0  9997
2 65111  50.0008 342.9083 0009991 142.6617 217.4951 13.29335170 28691
HULIANWANG DIGUI-55     
1 65112U 25168G   26062.94331746 -.00000053  00000+0  15331-3 0  9994
2 65112  50.0014 343.0020 0011267 138.5200 221.6529 13.29338728 28693
HULIANWANG DIGUI-56     
1 65113U 25168H   26062.93498299 -.00000054  00000+0  15069-3 0  9990
2 65113  50.0006 342.9431 0010985 160.5212 199.6082 13.29338086 28698
HULIANWANG DIGUI-57     
1 65114U 25168J   26062.91853464 -.00000043  00000+0  17412-3 0  9990
2 65114  50.0034 342.9122 0008740 150.9462 209.1898 13.29334959 28702
HULIANWANG DIGUI-58     
1 65164U 25174A   26062.95227564  .00000087  00000+0  16766-3 0  9990
2 65164  86.4929 287.5710 0001248  86.1791 273.9486 13.24420914 26860
HULIANWANG DIGUI-59     
1 65165U 25174B   26062.95982666  .00000086  00000+0  16572-3 0  9996
2 65165  86.4890 287.4984 0001235  85.4557 274.6718 13.24421101 26863
HULIANWANG DIGUI-60     
1 65166U 25174C   26062.96735454  .00000072  00000+0  13291-3 0  9999
2 65166  86.4922 287.5649 0001205  87.5034 272.6238 13.24421319 26865
HULIANWANG DIGUI-61     
1 65167U 25174D   26062.97496478  .00000051  00000+0  84376-4 0  9991
2 65167  86.4931 287.5849 0001161  86.4091 273.7175 13.24419830 26867
HULIANWANG DIGUI-62     
1 65168U 25174E   26062.98247442  .00000056  00000+0  96643-4 0  9993
2 65168  86.4872 287.4724 0001162  88.7348 271.3919 13.24421210 26869
HULIANWANG DIGUI-63     
1 65169U 25174F   26062.99001465  .00000055  00000+0  94923-4 0  9996
2 65169  86.4925 287.5786 0001185  86.3108 273.8162 13.24421593 26862
HULIANWANG DIGUI-64     
1 65170U 25174G   26062.92202386  .00000054  00000+0  91580-4 0  9991
2 65170  86.4884 287.5275 0001169  88.8964 271.2304 13.24421578 26852
